{"type": "FeatureCollection", "features": [ {"type": "Feature", "properties": {"norad_id": 30998, "name": "FENGYUN 1C DEB", "group": "fengyun-1c-debris", "lat": -6.121393647480344, "lon": 64.87233212047296, "alt_km": 744.1075352911357, "timestamp": "2025-12-06T16:45:43.001905+00:00", "meta": {"OBJECT_NAME": "FENGYUN 1C DEB", "OBJECT_ID": "1999-025BCQ", "EPOCH": "2025-12-06T05:17:55.303008", "MEAN_MOTION": 14.47717057, "ECCENTRICITY": 0.00127692, "INCLINATION": 98.8293, "RA_OF_ASC_NODE": 63.4188, "ARG_OF_PERICENTER": 211.5074, "MEAN_ANOMALY": 174.4213, "EPHEMERIS_TYPE": 0, "CLASSIFICATION_TYPE": "U", "NORAD_CAT_ID": 30998, "ELEMENT_SET_NO": 999, "REV_AT_EPOCH": 97096, "BSTAR": 0.00404578, "MEAN_MOTION_DOT": 0.00014935, "MEAN_MOTION_DDOT": 0}, "tle": {"line1": "1 30998U 99025BCQ 25340.22077897  .00014935  00000+0  40458-2 0  9994", "line2": "2 30998  98.8293  63.4188 0012769 211.5074 174.4213 14.47717057970961"}}, "geometry": {"type": "Point", "coordinates": [64.87233212047296, -6.121393647480344]}}, {"type": "Feature", "properties": {"norad_id": 30999, "name": "FENGYUN 1C DEB", "group": "fengyun-1c-debris", "lat": -56.619459928427545, "lon": -40.19773259972909, "alt_km": 743.208170370186, "timestamp": "2025-12-06T16:45:43.001916+00:00", "meta": {"OBJECT_NAME": "FENGYUN 1C DEB", "OBJECT_ID": "1999-025BCR", "EPOCH": "2025-12-06T05:47:24.481248", "MEAN_MOTION": 14.583648, "ECCENTRICITY": 0.01133387, "INCLINATION": 99.0904, "RA_OF_ASC_NODE": 153.3661, "ARG_OF_PERICENTER": 357.6849, "MEAN_ANOMALY": 2.3808, "EPHEMERIS_TYPE": 0, "CLASSIFICATION_TYPE": "U", "NORAD_CAT_ID": 30999, "ELEMENT_SET_NO": 999, "REV_AT_EPOCH": 98736, "BSTAR": 0.0009679349, "MEAN_MOTION_DOT": 4.84e-05, "MEAN_MOTION_DDOT": 0}, "tle": {"line1": "1 30999U 99025BCR 25340.24125557  .00004840  00000+0  96793-3 0  9992", "line2": "2 30999  99.0904 153.3661 0113338 357.6849   2.3808 14.58364800987362"}}, "geometry": {"type": "Point", "coordinates": [-40.19773259972909, -56.619459928427545]}}, {"type": "Feature", "properties": {"norad_id": 31000, "name": "FENGYUN 1C DEB", "group": "fengyun-1c-debris", "lat": -39.756534343154286, "lon": -176.04367843303908, "alt_km": 952.9120928136399, "timestamp": "2025-12-06T16:45:43.001926+00:00", "meta": {"OBJECT_NAME": "FENGYUN 1C DEB", "OBJECT_ID": "1999-025BCS", "EPOCH": "2025-12-04T21:42:51.154272", "MEAN_MOTION": 14.09617577, "ECCENTRICITY": 0.0165715, "INCLINATION": 97.5669, "RA_OF_ASC_NODE": 8.7953, "ARG_OF_PERICENTER": 89.0211, "MEAN_ANOMALY": 32.828, "EPHEMERIS_TYPE": 0, "CLASSIFICATION_TYPE": "U", "NORAD_CAT_ID": 31000, "ELEMENT_SET_NO": 999, "REV_AT_EPOCH": 69846, "BSTAR": 0.0010417, "MEAN_MOTION_DOT": 2.041e-05, "MEAN_MOTION_DDOT": 0}, "tle": {"line1": "1 31000U 99025BCS 25338.90475873  .00002041  00000+0  10417-2 0  9994", "line2": "2 31000  97.5669   8.7953 0165715  89.0211  32.8280 14.09617577698469"}}, "geometry": {"type": "Point", "coordinates": [-176.04367843303908, -39.756534343154286]}}, {"type": "Feature", "properties": {"norad_id": 31001, "name": "FENGYUN 1C DEB", "group": "fengyun-1c-debris", "lat": -15.938046308363386, "lon": -144.27350085728537, "alt_km": 857.6468929907387, "timestamp": "2025-12-06T16:45:43.001937+00:00", "meta": {"OBJECT_NAME": "FENGYUN 1C DEB", "OBJECT_ID": "1999-025BCT", "EPOCH": "2025-12-03T02:17:28.485312", "MEAN_MOTION": 14.42813924, "ECCENTRICITY": 0.01464487, "INCLINATION": 99.273, "RA_OF_ASC_NODE": 209.1349, "ARG_OF_PERICENTER": 180.861, "MEAN_ANOMALY": 179.2347, "EPHEMERIS_TYPE": 0, "CLASSIFICATION_TYPE": "U", "NORAD_CAT_ID": 31001, "ELEMENT_SET_NO": 999, "REV_AT_EPOCH": 98067, "BSTAR": 0.00057151894, "MEAN_MOTION_DOT": 2.112e-05, "MEAN_MOTION_DDOT": 0}, "tle": {"line1": "1 31001U 99025BCT 25337.09546858  .00002112  00000+0  57152-3 0  9993", "line2": "2 31001  99.2730 209.1349 0146448 180.8610 179.2347 14.42813924980677"}}, "geometry": {"type": "Point", "coordinates": [-144.27350085728537, -15.938046308363386]}}, {"type": "Feature", "properties": {"norad_id": 31002, "name": "FENGYUN 1C DEB", "group": "fengyun-1c-debris", "lat": -72.12152014901181, "lon": 143.82576590777276, "alt_km": 927.9020576766998, "timestamp": "2025-12-06T16:45:43.001947+00:00", "meta": {"OBJECT_NAME": "FENGYUN 1C DEB", "OBJECT_ID": "1999-025BCU", "EPOCH": "2025-12-06T07:00:57.737088", "MEAN_MOTION": 13.9919529, "ECCENTRICITY": 0.00993182, "INCLINATION": 98.8863, "RA_OF_ASC_NODE": 352.4441, "ARG_OF_PERICENTER": 5.4949, "MEAN_ANOMALY": 5.6296, "EPHEMERIS_TYPE": 0, "CLASSIFICATION_TYPE": "U", "NORAD_CAT_ID": 31002, "ELEMENT_SET_NO": 999, "REV_AT_EPOCH": 95515, "BSTAR": 0.00047255564, "MEAN_MOTION_DOT": 6.72e-06, "MEAN_MOTION_DDOT": 0}, "tle": {"line1": "1 31002U 99025BCU 25340.29233492  .00000672  00000+0  47256-3 0  9990", "line2": "2 31002  98.8863 352.4441 0099318   5.4949   5.6296 13.99195290955155"}}, "geometry": {"type": "Point", "coordinates": [143.82576590777276, -72.12152014901181]}}, {"type": "Feature", "properties": {"norad_id": 31003, "name": "FENGYUN 1C DEB", "group": "fengyun-1c-debris", "lat": 56.3366948724111, "lon": 43.92911522716132, "alt_km": 833.719541278936, "timestamp": "2025-12-06T16:45:43.001957+00:00", "meta": {"OBJECT_NAME": "FENGYUN 1C DEB", "OBJECT_ID": "1999-025BCV", "EPOCH": "2025-12-05T03:24:30.054528", "MEAN_MOTION": 14.24621058, "ECCENTRICITY": 0.0041229, "INCLINATION": 98.8447, "RA_OF_ASC_NODE": 55.8828, "ARG_OF_PERICENTER": 235.6299, "MEAN_ANOMALY": 124.0977, "EPHEMERIS_TYPE": 0, "CLASSIFICATION_TYPE": "U", "NORAD_CAT_ID": 31003, "ELEMENT_SET_NO": 999, "REV_AT_EPOCH": 96401, "BSTAR": 0.0030130866, "MEAN_MOTION_DOT": 7.024e-05, "MEAN_MOTION_DDOT": 0}, "tle": {"line1": "1 31003U 99025BCV 25339.14201452  .00007024  00000+0  30131-2 0  9995", "line2": "2 31003  98.8447  55.8828 0041229 235.6299 124.0977 14.24621058964012"}}, "geometry": {"type": "Point", "coordinates": [43.92911522716132, 56.3366948724111]}}, {"type": "Feature", "properties": {"norad_id": 31005, "name": "FENGYUN 1C DEB", "group": "fengyun-1c-debris", "lat": 16.60399742154739, "lon": -62.457261619739306, "alt_km": 1085.104377569366, "timestamp": "2025-12-06T16:45:43.001967+00:00", "meta": {"OBJECT_NAME": "FENGYUN 1C DEB", "OBJECT_ID": "1999-025BCX", "EPOCH": "2025-12-04T08:32:54.377088", "MEAN_MOTION": 13.8324745, "ECCENTRICITY": 0.018044, "INCLINATION": 98.6135, "RA_OF_ASC_NODE": 112.8065, "ARG_OF_PERICENTER": 348.3852, "MEAN_ANOMALY": 37.4973, "EPHEMERIS_TYPE": 0, "CLASSIFICATION_TYPE": "U", "NORAD_CAT_ID": 31005, "ELEMENT_SET_NO": 999, "REV_AT_EPOCH": 94165, "BSTAR": 0.0016686, "MEAN_MOTION_DOT": 2.036e-05, "MEAN_MOTION_DDOT": 0}, "tle": {"line1": "1 31005U 99025BCX 25338.35618492  .00002036  00000+0  16686-2 0  9992", "line2": "2 31005  98.6135 112.8065 0180440 348.3852  37.4973 13.83247450941651"}}, "geometry": {"type": "Point", "coordinates": [-62.457261619739306, 16.60399742154739]}}, {"type": "Feature", "properties": {"norad_id": 31007, "name": "FENGYUN 1C DEB", "group": "fengyun-1c-debris", "lat": 33.90707418141847, "lon": -32.82090585047656, "alt_km": 651.4878838921622, "timestamp": "2025-12-06T16:45:43.001977+00:00", "meta": {"OBJECT_NAME": "FENGYUN 1C DEB", "OBJECT_ID": "1999-025BCZ", "EPOCH": "2025-12-05T22:29:40.699968", "MEAN_MOTION": 14.58430465, "ECCENTRICITY": 0.00678396, "INCLINATION": 98.0872, "RA_OF_ASC_NODE": 331.9227, "ARG_OF_PERICENTER": 58.845, "MEAN_ANOMALY": 301.9379, "EPHEMERIS_TYPE": 0, "CLASSIFICATION_TYPE": "U", "NORAD_CAT_ID": 31007, "ELEMENT_SET_NO": 999, "REV_AT_EPOCH": 97995, "BSTAR": 0.0032392105, "MEAN_MOTION_DOT": 0.0001549, "MEAN_MOTION_DDOT": 0}, "tle": {"line1": "1 31007U 99025BCZ 25339.93727662  .00015490  00000+0  32392-2 0  9999", "line2": "2 31007  98.0872 331.9227 0067839  58.8450 301.9379 14.58430465979958"}}, "geometry": {"type": "Point", "coordinates": [-32.82090585047656, 33.90707418141847]}}, {"type": "Feature", "properties": {"norad_id": 31009, "name": "FENGYUN 1C DEB", "group": "fengyun-1c-debris", "lat": 51.851326079918955, "lon": 168.1882984645476, "alt_km": 910.7730498549636, "timestamp": "2025-12-06T16:45:43.001988+00:00", "meta": {"OBJECT_NAME": "FENGYUN 1C DEB", "OBJECT_ID": "1999-025BDB", "EPOCH": "2025-12-05T23:08:15.059616", "MEAN_MOTION": 14.00359333, "ECCENTRICITY": 0.00527016, "INCLINATION": 98.8979, "RA_OF_ASC_NODE": 335.9694, "ARG_OF_PERICENTER": 256.5198, "MEAN_ANOMALY": 131.1026, "EPHEMERIS_TYPE": 0, "CLASSIFICATION_TYPE": "U", "NORAD_CAT_ID": 31009, "ELEMENT_SET_NO": 999, "REV_AT_EPOCH": 95766, "BSTAR": 0.00026041316, "MEAN_MOTION_DOT": 3.47e-06, "MEAN_MOTION_DDOT": 0}, "tle": {"line1": "1 31009U 99025BDB 25339.96406319  .00000347  00000+0  26041-3 0  9997", "line2": "2 31009  98.8979 335.9694 0052701 256.5198 131.1026 14.00359333957663"}}, "geometry": {"type": "Point", "coordinates": [168.1882984645476, 51.851326079918955]}}, {"type": "Feature", "properties": {"norad_id": 31010, "name": "FENGYUN 1C DEB", "group": "fengyun-1c-debris", "lat": -3.781755526576464, "lon": 126.45988043228301, "alt_km": 730.7156330385724, "timestamp": "2025-12-06T16:45:43.001998+00:00", "meta": {"OBJECT_NAME": "FENGYUN 1C DEB", "OBJECT_ID": "1999-025BDC", "EPOCH": "2025-12-03T14:40:09.604128", "MEAN_MOTION": 14.25566654, "ECCENTRICITY": 0.0113178, "INCLINATION": 101.7253, "RA_OF_ASC_NODE": 121.5573, "ARG_OF_PERICENTER": 18.4342, "MEAN_ANOMALY": 342.0878, "EPHEMERIS_TYPE": 0, "CLASSIFICATION_TYPE": "U", "NORAD_CAT_ID": 31010, "ELEMENT_SET_NO": 999, "REV_AT_EPOCH": 95499, "BSTAR": 0.0057807, "MEAN_MOTION_DOT": 0.00014595, "MEAN_MOTION_DDOT": 0}, "tle": {"line1": "1 31010U 99025BDC 25337.61122227  .00014595  00000+0  57807-2 0  9995", "line2": "2 31010 101.7253 121.5573 0113178  18.4342 342.0878 14.25566654954995"}}, "geometry": {"type": "Point", "coordinates": [126.45988043228301, -3.781755526576464]}}]}